start=new Date('2022-04-01T00:00:00.000Z').valueOf();
sats=[{"CENTER_NAME":"EARTH","PERIOD":"95.592","MEAN_ELEMENT_THEORY":"SGP4","LAUNCH_DATE":"2020-01-07","DECAY_DATE":null,"TLE_LINE1":"1 44967U 20001BF  22090.56680963  .00001903  00000-0  14665-3 0  9997","MEAN_MOTION":"15.06395449","TLE_LINE2":"2 44967  53.0536 287.1024 0001450  70.0133 290.1012 15.06395449123504","MEAN_MOTION_DOT":"0.00001903","REF_FRAME":"TEME","TIME_SYSTEM":"UTC","OBJECT_NAME":"STARLINK-1089","GP_ID":"200143108","APOAPSIS":"548.232","OBJECT_TYPE":"PAYLOAD","CLASSIFICATION_TYPE":"U","MEAN_ANOMALY":"290.1012","SITE":"AFETR","RCS_SIZE":"LARGE","EPOCH":"2022-03-31T13:36:12.352032","MEAN_MOTION_DDOT":"0.0000000000000","REV_AT_EPOCH":"12350","ECCENTRICITY":"0.00014500","PERIAPSIS":"546.223","EPHEMERIS_TYPE":"0","BSTAR":"0.00014665000000","SEMIMAJOR_AXIS":"6925.363","COUNTRY_CODE":"US","INCLINATION":"53.0536","ARG_OF_PERICENTER":"70.0133","NORAD_CAT_ID":"44967","OBJECT_ID":"2020-001BF","ELEMENT_SET_NO":"999","RA_OF_ASC_NODE":"287.1024","FILE":"3381849"},{"PERIOD":"95.592","MEAN_ELEMENT_THEORY":"SGP4","LAUNCH_DATE":"2020-01-07","CENTER_NAME":"EARTH","DECAY_DATE":null,"TLE_LINE1":"1 44968U 20001BG  22090.56311701  .00000537  00000-0  54927-4 0  9997","TLE_LINE2":"2 44968  53.0557 287.1125 0001500  60.2618 299.8520 15.06402692123504","REF_FRAME":"TEME","MEAN_MOTION_DOT":"0.00000537","TIME_SYSTEM":"UTC","MEAN_MOTION":"15.06402692","APOAPSIS":"548.244","OBJECT_TYPE":"PAYLOAD","CLASSIFICATION_TYPE":"U","OBJECT_NAME":"STARLINK-1090","GP_ID":"200143852","MEAN_ANOMALY":"299.8520","SITE":"AFETR","REV_AT_EPOCH":"12350","RCS_SIZE":"LARGE","MEAN_MOTION_DDOT":"0.0000000000000","EPOCH":"2022-03-31T13:30:53.309664","COUNTRY_CODE":"US","SEMIMAJOR_AXIS":"6925.340","INCLINATION":"53.0557","ECCENTRICITY":"0.00015000","EPHEMERIS_TYPE":"0","PERIAPSIS":"546.167","BSTAR":"0.00005492700000","OBJECT_ID":"2020-001BG","ELEMENT_SET_NO":"999","RA_OF_ASC_NODE":"287.1125","FILE":"3381849","ARG_OF_PERICENTER":"60.2618","NORAD_CAT_ID":"44968"},{"TLE_LINE1":"1 44969U 20001BH  22090.82113169  .00010956  00000-0  75310-3 0  9999","DECAY_DATE":null,"LAUNCH_DATE":"2020-01-07","MEAN_ELEMENT_THEORY":"SGP4","PERIOD":"95.592","CENTER_NAME":"EARTH","CLASSIFICATION_TYPE":"U","OBJECT_TYPE":"PAYLOAD","APOAPSIS":"548.275","GP_ID":"200157419","OBJECT_NAME":"STARLINK-1092","MEAN_MOTION_DOT":"0.00010956","TIME_SYSTEM":"UTC","REF_FRAME":"TEME","TLE_LINE2":"2 44969  53.0533 285.9520 0001575  77.5930 282.5235 15.06409458123536","MEAN_MOTION":"15.06409458","REV_AT_EPOCH":"12353","RCS_SIZE":"LARGE","EPOCH":"2022-03-31T19:42:25.778016","MEAN_MOTION_DDOT":"0.0000000000000","SITE":"AFETR","MEAN_ANOMALY":"282.5235","RA_OF_ASC_NODE":"285.9520","FILE":"3382183","ELEMENT_SET_NO":"999","OBJECT_ID":"2020-001BH","NORAD_CAT_ID":"44969","ARG_OF_PERICENTER":"77.5930","INCLINATION":"53.0533","SEMIMAJOR_AXIS":"6925.320","COUNTRY_CODE":"US","BSTAR":"0.00075310000000","EPHEMERIS_TYPE":"0","PERIAPSIS":"546.094","ECCENTRICITY":"0.00015750"},{"MEAN_MOTION_DOT":"0.00002305","REF_FRAME":"TEME","TIME_SYSTEM":"UTC","TLE_LINE2":"2 44970  53.0538 286.0486 0001353  80.2271 279.8870 15.06404542123521","MEAN_MOTION":"15.06404542","CLASSIFICATION_TYPE":"U","OBJECT_TYPE":"PAYLOAD","APOAPSIS":"548.137","GP_ID":"200156947","OBJECT_NAME":"STARLINK-1093","LAUNCH_DATE":"2020-01-07","MEAN_ELEMENT_THEORY":"SGP4","PERIOD":"95.592","CENTER_NAME":"EARTH","TLE_LINE1":"1 44970U 20001BJ  22090.79901962  .00002305  00000-0  17353-3 0  9995","DECAY_DATE":null,"INCLINATION":"53.0538","COUNTRY_CODE":"US","SEMIMAJOR_AXIS":"6925.335","BSTAR":"0.00017353000000","PERIAPSIS":"546.263","EPHEMERIS_TYPE":"0","ECCENTRICITY":"0.00013530","RA_OF_ASC_NODE":"286.0486","FILE":"3382183","ELEMENT_SET_NO":"999","OBJECT_ID":"2020-001BJ","NORAD_CAT_ID":"44970","ARG_OF_PERICENTER":"80.2271","SITE":"AFETR","MEAN_ANOMALY":"279.8870","REV_AT_EPOCH":"12352","RCS_SIZE":"LARGE","MEAN_MOTION_DDOT":"0.0000000000000","EPOCH":"2022-03-31T19:10:35.295168"},{"CENTER_NAME":"EARTH","MEAN_ELEMENT_THEORY":"SGP4","LAUNCH_DATE":"2020-01-07","PERIOD":"95.592","TLE_LINE1":"1 44972U 20001BL  22090.57049659  .00001444  00000-0  11584-3 0  9992","DECAY_DATE":null,"MEAN_MOTION":"15.06394338","TLE_LINE2":"2 44972  53.0566 287.0745 0001382  69.6292 290.4845 15.06394338123509","MEAN_MOTION_DOT":"0.00001444","TIME_SYSTEM":"UTC","REF_FRAME":"TEME","GP_ID":"200143602","OBJECT_NAME":"STARLINK-1107","OBJECT_TYPE":"PAYLOAD","CLASSIFICATION_TYPE":"U","APOAPSIS":"548.188","MEAN_ANOMALY":"290.4845","SITE":"AFETR","RCS_SIZE":"LARGE","MEAN_MOTION_DDOT":"0.0000000000000","EPOCH":"2022-03-31T13:41:30.905376","REV_AT_EPOCH":"12350","PERIAPSIS":"546.274","EPHEMERIS_TYPE":"0","BSTAR":"0.00011584000000","ECCENTRICITY":"0.00013820","SEMIMAJOR_AXIS":"6925.366","COUNTRY_CODE":"US","INCLINATION":"53.0566","NORAD_CAT_ID":"44972","ARG_OF_PERICENTER":"69.6292","FILE":"3381849","RA_OF_ASC_NODE":"287.0745","OBJECT_ID":"2020-001BL","ELEMENT_SET_NO":"999"},{"OBJECT_ID":"2020-001BM","ELEMENT_SET_NO":"999","FILE":"3381849","RA_OF_ASC_NODE":"287.4826","ARG_OF_PERICENTER":"68.3108","NORAD_CAT_ID":"44973","SEMIMAJOR_AXIS":"6925.342","COUNTRY_CODE":"US","INCLINATION":"53.0537","ECCENTRICITY":"0.00013870","EPHEMERIS_TYPE":"0","PERIAPSIS":"546.247","BSTAR":"0.00006451700000","REV_AT_EPOCH":"12348","RCS_SIZE":"LARGE","EPOCH":"2022-03-31T11:34:07.281408","MEAN_MOTION_DDOT":"0.0000000000000","MEAN_ANOMALY":"291.8028","SITE":"AFETR","APOAPSIS":"548.168","OBJECT_TYPE":"PAYLOAD","CLASSIFICATION_TYPE":"U","OBJECT_NAME":"STARLINK-1115","GP_ID":"200143359","TLE_LINE2":"2 44973  53.0537 287.4826 0001387  68.3108 291.8028 15.06402042123486","TIME_SYSTEM":"UTC","MEAN_MOTION_DOT":"0.00000680","REF_FRAME":"TEME","MEAN_MOTION":"15.06402042","DECAY_DATE":null,"TLE_LINE1":"1 44973U 20001BM  22090.48202872  .00000680  00000-0  64517-4 0  9997","PERIOD":"95.592","MEAN_ELEMENT_THEORY":"SGP4","LAUNCH_DATE":"2020-01-07","CENTER_NAME":"EARTH"},{"PERIOD":"95.593","LAUNCH_DATE":"2020-01-29","MEAN_ELEMENT_THEORY":"SGP4","CENTER_NAME":"EARTH","DECAY_DATE":null,"TLE_LINE1":"1 45044U 20006A   22090.52257638  .00001224  00000-0  10107-3 0  9997","MEAN_MOTION_DOT":"0.00001224","REF_FRAME":"TEME","TIME_SYSTEM":"UTC","TLE_LINE2":"2 45044  53.0554 247.2997 0001541  63.6672 296.4476 15.06392903119829","MEAN_MOTION":"15.06392903","APOAPSIS":"548.303","CLASSIFICATION_TYPE":"U","OBJECT_TYPE":"PAYLOAD","OBJECT_NAME":"STARLINK-1132","GP_ID":"200143859","SITE":"AFETR","MEAN_ANOMALY":"296.4476","REV_AT_EPOCH":"11982","RCS_SIZE":"LARGE","EPOCH":"2022-03-31T12:32:30.599232","MEAN_MOTION_DDOT":"0.0000000000000","INCLINATION":"53.0554","SEMIMAJOR_AXIS":"6925.370","COUNTRY_CODE":"US","ECCENTRICITY":"0.00015410","BSTAR":"0.00010107000000","PERIAPSIS":"546.168","EPHEMERIS_TYPE":"0","ELEMENT_SET_NO":"999","OBJECT_ID":"2020-006A","FILE":"3381849","RA_OF_ASC_NODE":"247.2997","ARG_OF_PERICENTER":"63.6672","NORAD_CAT_ID":"45044"},{"MEAN_ANOMALY":"300.5389","SITE":"AFETR","MEAN_MOTION_DDOT":"0.0000000000000","RCS_SIZE":"LARGE","EPOCH":"2022-03-31T13:49:28.775136","REV_AT_EPOCH":"11955","PERIAPSIS":"546.245","EPHEMERIS_TYPE":"0","BSTAR":"0.00008667900000","ECCENTRICITY":"0.00014280","SEMIMAJOR_AXIS":"6925.369","COUNTRY_CODE":"US","INCLINATION":"53.0549","NORAD_CAT_ID":"45045","ARG_OF_PERICENTER":"59.5740","RA_OF_ASC_NODE":"267.0461","FILE":"3381849","OBJECT_ID":"2020-006B","ELEMENT_SET_NO":"999","CENTER_NAME":"EARTH","MEAN_ELEMENT_THEORY":"SGP4","LAUNCH_DATE":"2020-01-29","PERIOD":"95.593","TLE_LINE1":"1 45045U 20006B   22090.57602749  .00001010  00000-0  86679-4 0  9991","DECAY_DATE":null,"MEAN_MOTION":"15.06393492","TLE_LINE2":"2 45045  53.0549 267.0461 0001428  59.5740 300.5389 15.06393492119558","MEAN_MOTION_DOT":"0.00001010","TIME_SYSTEM":"UTC","REF_FRAME":"TEME","GP_ID":"200144117","OBJECT_NAME":"STARLINK-1120","OBJECT_TYPE":"PAYLOAD","CLASSIFICATION_TYPE":"U","APOAPSIS":"548.222"},{"MEAN_MOTION_DOT":"0.00045440","TIME_SYSTEM":"UTC","REF_FRAME":"TEME","TLE_LINE2":"2 45046  52.9959 261.1253 0000830 138.2405 221.8648 15.11462405119566","MEAN_MOTION":"15.11462405","APOAPSIS":"532.315","CLASSIFICATION_TYPE":"U","OBJECT_TYPE":"PAYLOAD","OBJECT_NAME":"STARLINK-1129","GP_ID":"200144353","PERIOD":"95.272","LAUNCH_DATE":"2020-01-29","MEAN_ELEMENT_THEORY":"SGP4","CENTER_NAME":"EARTH","DECAY_DATE":null,"TLE_LINE1":"1 45046U 20006C   22090.16433974  .00045440  00000-0  26560-2 0  9995","INCLINATION":"52.9959","SEMIMAJOR_AXIS":"6909.876","COUNTRY_CODE":"US","ECCENTRICITY":"0.00008300","BSTAR":"0.00265600000000","EPHEMERIS_TYPE":"0","PERIAPSIS":"531.168","ELEMENT_SET_NO":"999","OBJECT_ID":"2020-006C","FILE":"3381849","RA_OF_ASC_NODE":"261.1253","ARG_OF_PERICENTER":"138.2405","NORAD_CAT_ID":"45046","SITE":"AFETR","MEAN_ANOMALY":"221.8648","REV_AT_EPOCH":"11956","EPOCH":"2022-03-31T03:56:38.953536","RCS_SIZE":"LARGE","MEAN_MOTION_DDOT":"0.0000000000000"},{"EPOCH":"2022-03-31T12:19:14.311776","RCS_SIZE":"LARGE","MEAN_MOTION_DDOT":"0.0000000000000","REV_AT_EPOCH":"11954","SITE":"AFETR","MEAN_ANOMALY":"288.3723","NORAD_CAT_ID":"45047","ARG_OF_PERICENTER":"71.7420","FILE":"3381849","RA_OF_ASC_NODE":"267.3361","ELEMENT_SET_NO":"999","OBJECT_ID":"2020-006D","BSTAR":"0.00014039000000","PERIAPSIS":"546.259","EPHEMERIS_TYPE":"0","ECCENTRICITY":"0.00014140","INCLINATION":"53.0548","SEMIMAJOR_AXIS":"6925.373","COUNTRY_CODE":"US","TLE_LINE1":"1 45047U 20006D   22090.51336009  .00001810  00000-0  14039-3 0  9998","DECAY_DATE":null,"CENTER_NAME":"EARTH","LAUNCH_DATE":"2020-01-29","MEAN_ELEMENT_THEORY":"SGP4","PERIOD":"95.593","GP_ID":"200143609","OBJECT_NAME":"STARLINK-1131","CLASSIFICATION_TYPE":"U","OBJECT_TYPE":"PAYLOAD","APOAPSIS":"548.217","MEAN_MOTION":"15.06391968","REF_FRAME":"TEME","MEAN_MOTION_DOT":"0.00001810","TIME_SYSTEM":"UTC","TLE_LINE2":"2 45047  53.0548 267.3361 0001414  71.7420 288.3723 15.06391968119547"}];
